CCSDS_OMM_VERS = 2.0
CREATION_DATE  = 
ORIGINATOR     = 

OBJECT_NAME    = SOYUZ-MS 28
OBJECT_ID      = 2025-275A
CENTER_NAME    = EARTH
REF_FRAME      = TEME
TIME_SYSTEM    = UTC
MEAN_ELEMENT_THEORY = SGP/SGP4

EPOCH          = 2025-12-31T10:27:57.254112
MEAN_MOTION    = 15.48972750
ECCENTRICITY   = .0007506
INCLINATION    = 51.6331
RA_OF_ASC_NODE = 49.8878
ARG_OF_PERICENTER = 323.8065
MEAN_ANOMALY   = 36.2414

EPHEMERIS_TYPE = 0
CLASSIFICATION_TYPE = U
NORAD_CAT_ID   = 66664
ELEMENT_SET_NO = 999
REV_AT_EPOCH   = 54575
BSTAR          = .28262E-3
MEAN_MOTION_DOT = .15147E-3
MEAN_MOTION_DDOT = 0

CCSDS_OMM_VERS = 2.0
CREATION_DATE  = 
ORIGINATOR     = 

OBJECT_NAME    = 1998-067XS
OBJECT_ID      = 1998-067XS
CENTER_NAME    = EARTH
REF_FRAME      = TEME
TIME_SYSTEM    = UTC
MEAN_ELEMENT_THEORY = SGP/SGP4

EPOCH          = 2025-12-31T09:55:33.367296
MEAN_MOTION    = 15.51666890
ECCENTRICITY   = .0002553
INCLINATION    = 51.6323
RA_OF_ASC_NODE = 49.7383
ARG_OF_PERICENTER = 300.5358
MEAN_ANOMALY   = 59.5380

EPHEMERIS_TYPE = 0
CLASSIFICATION_TYPE = U
NORAD_CAT_ID   = 66906
ELEMENT_SET_NO = 999
REV_AT_EPOCH   = 451
BSTAR          = .61432E-3
MEAN_MOTION_DOT = .36913E-3
MEAN_MOTION_DDOT = 0

CCSDS_OMM_VERS = 2.0
CREATION_DATE  = 
ORIGINATOR     = 

OBJECT_NAME    = 1998-067XT
OBJECT_ID      = 1998-067XT
CENTER_NAME    = EARTH
REF_FRAME      = TEME
TIME_SYSTEM    = UTC
MEAN_ELEMENT_THEORY = SGP/SGP4

EPOCH          = 2025-12-31T09:24:46.105056
MEAN_MOTION    = 15.54037740
ECCENTRICITY   = .0003858
INCLINATION    = 51.6323
RA_OF_ASC_NODE = 49.5965
ARG_OF_PERICENTER = 342.2986
MEAN_ANOMALY   = 17.7869

EPHEMERIS_TYPE = 0
CLASSIFICATION_TYPE = U
NORAD_CAT_ID   = 66907
ELEMENT_SET_NO = 999
REV_AT_EPOCH   = 451
BSTAR          = .13594E-2
MEAN_MOTION_DOT = .90257E-3
MEAN_MOTION_DDOT = 0

CCSDS_OMM_VERS = 2.0
CREATION_DATE  = 
ORIGINATOR     = 

OBJECT_NAME    = 1998-067XU
OBJECT_ID      = 1998-067XU
CENTER_NAME    = EARTH
REF_FRAME      = TEME
TIME_SYSTEM    = UTC
MEAN_ELEMENT_THEORY = SGP/SGP4

EPOCH          = 2025-12-31T09:23:07.410336
MEAN_MOTION    = 15.53999501
ECCENTRICITY   = .0003963
INCLINATION    = 51.6320
RA_OF_ASC_NODE = 49.5878
ARG_OF_PERICENTER = 337.9678
MEAN_ANOMALY   = 22.1142

EPHEMERIS_TYPE = 0
CLASSIFICATION_TYPE = U
NORAD_CAT_ID   = 66908
ELEMENT_SET_NO = 999
REV_AT_EPOCH   = 451
BSTAR          = .12602E-2
MEAN_MOTION_DOT = .83448E-3
MEAN_MOTION_DDOT = 0

CCSDS_OMM_VERS = 2.0
CREATION_DATE  = 
ORIGINATOR     = 

OBJECT_NAME    = SILVERSAT
OBJECT_ID      = 1998-067XV
CENTER_NAME    = EARTH
REF_FRAME      = TEME
TIME_SYSTEM    = UTC
MEAN_ELEMENT_THEORY = SGP/SGP4

EPOCH          = 2025-12-31T09:18:43.877376
MEAN_MOTION    = 15.54471742
ECCENTRICITY   = .0004005
INCLINATION    = 51.6314
RA_OF_ASC_NODE = 49.5674
ARG_OF_PERICENTER = 346.0011
MEAN_ANOMALY   = 14.0868

EPHEMERIS_TYPE = 0
CLASSIFICATION_TYPE = U
NORAD_CAT_ID   = 66909
ELEMENT_SET_NO = 999
REV_AT_EPOCH   = 451
BSTAR          = .15066E-2
MEAN_MOTION_DOT = .101832E-2
MEAN_MOTION_DDOT = 0

CCSDS_OMM_VERS = 2.0
CREATION_DATE  = 
ORIGINATOR     = 

OBJECT_NAME    = 1998-067XW
OBJECT_ID      = 1998-067XW
CENTER_NAME    = EARTH
REF_FRAME      = TEME
TIME_SYSTEM    = UTC
MEAN_ELEMENT_THEORY = SGP/SGP4

EPOCH          = 2025-12-31T09:17:05.980128
MEAN_MOTION    = 15.54288814
ECCENTRICITY   = .0003447
INCLINATION    = 51.6314
RA_OF_ASC_NODE = 49.5599
ARG_OF_PERICENTER = 316.7976
MEAN_ANOMALY   = 43.2743

EPHEMERIS_TYPE = 0
CLASSIFICATION_TYPE = U
NORAD_CAT_ID   = 66910
ELEMENT_SET_NO = 999
REV_AT_EPOCH   = 451
BSTAR          = .13892E-2
MEAN_MOTION_DOT = .93121E-3
MEAN_MOTION_DDOT = 0

CCSDS_OMM_VERS = 2.0
CREATION_DATE  = 
ORIGINATOR     = 

OBJECT_NAME    = 1998-067XX
OBJECT_ID      = 1998-067XX
CENTER_NAME    = EARTH
REF_FRAME      = TEME
TIME_SYSTEM    = UTC
MEAN_ELEMENT_THEORY = SGP/SGP4

EPOCH          = 2025-12-31T09:07:57.753120
MEAN_MOTION    = 15.55033456
ECCENTRICITY   = .0003205
INCLINATION    = 51.6318
RA_OF_ASC_NODE = 49.5181
ARG_OF_PERICENTER = 330.0387
MEAN_ANOMALY   = 30.0420

EPHEMERIS_TYPE = 0
CLASSIFICATION_TYPE = U
NORAD_CAT_ID   = 66911
ELEMENT_SET_NO = 999
REV_AT_EPOCH   = 450
BSTAR          = .16211E-2
MEAN_MOTION_DOT = .112028E-2
MEAN_MOTION_DDOT = 0

CCSDS_OMM_VERS = 2.0
CREATION_DATE  = 
ORIGINATOR     = 

OBJECT_NAME    = 1998-067XY
OBJECT_ID      = 1998-067XY
CENTER_NAME    = EARTH
REF_FRAME      = TEME
TIME_SYSTEM    = UTC
MEAN_ELEMENT_THEORY = SGP/SGP4

EPOCH          = 2025-12-31T09:35:56.819616
MEAN_MOTION    = 15.53164396
ECCENTRICITY   = .0003786
INCLINATION    = 51.6325
RA_OF_ASC_NODE = 49.6480
ARG_OF_PERICENTER = 329.9609
MEAN_ANOMALY   = 30.1163

EPHEMERIS_TYPE = 0
CLASSIFICATION_TYPE = U
NORAD_CAT_ID   = 66912
ELEMENT_SET_NO = 999
REV_AT_EPOCH   = 450
BSTAR          = .11066E-2
MEAN_MOTION_DOT = .70905E-3
MEAN_MOTION_DDOT = 0

