SOYUZ-MS 28             
1 66664U 25275A   25365.43607933  .00015147  00000+0  28262-3 0  9995
2 66664  51.6331  49.8878 0007506 323.8065  36.2414 15.48972750545752
1998-067XS              
1 66906U 98067XS  25365.41358064  .00036913  00000+0  61432-3 0  9999
2 66906  51.6323  49.7383 0002553 300.5358  59.5380 15.51666890  4519
1998-067XT              
1 66907U 98067XT  25365.39220029  .00090257  00000+0  13594-2 0  9992
2 66907  51.6323  49.5965 0003858 342.2986  17.7869 15.54037740  4510
1998-067XU              
1 66908U 98067XU  25365.39105799  .00083448  00000+0  12602-2 0  9992
2 66908  51.6320  49.5878 0003963 337.9678  22.1142 15.53999501  4512
SILVERSAT               
1 66909U 98067XV  25365.38800784  .00101832  00000+0  15066-2 0  9993
2 66909  51.6314  49.5674 0004005 346.0011  14.0868 15.54471742  4518
1998-067XW              
1 66910U 98067XW  25365.38687477  .00093121  00000+0  13892-2 0  9993
2 66910  51.6314  49.5599 0003447 316.7976  43.2743 15.54288814  4511
1998-067XX              
1 66911U 98067XX  25365.38052955  .00112028  00000+0  16211-2 0  9997
2 66911  51.6318  49.5181 0003205 330.0387  30.0420 15.55033456  4506
1998-067XY              
1 66912U 98067XY  25365.39996319  .00070905  00000+0  11066-2 0  9990
2 66912  51.6325  49.6480 0003786 329.9609  30.1163 15.53164396  4507
